NORAD_CAT_ID,OBJECT_NAME,OBJECT_TYPE,EPOCH,MEAN_MOTION,ECCENTRICITY,INCLINATION,RA_OF_ASC_NODE,ARG_OF_PERICENTER,MEAN_ANOMALY,BSTAR,MEAN_MOTION_DOT,MEAN_MOTION_DDOT,TLE_LINE0,TLE_LINE1,TLE_LINE2,SEMIMAJOR_AXIS,PERIOD,APOGEE,PERIGEE,DECAYED
52313.0,STARLINK-3749,PAYLOAD,2023-12-25 12:15:06,15.08839194,0.0001531,53.2154,103.7107,70.8094,289.3064,8.1342e-05,1.007e-05,0.0,0 STARLINK-3749,1 52313U 22041BE  23359.51049581  .00001007  00000-0  81342-4 0  9998,2 52313  53.2154 103.7107 0001531  70.8094 289.3064 15.08839194 94310,6917.883,95.438,540.807,538.689,0.0
52313.0,STARLINK-3749,PAYLOAD,2023-12-25 13:50:29,15.08843187,0.0001513,53.2154,103.4129,73.8485,286.2673,0.00013764,1.903e-05,0.0,0 STARLINK-3749,1 52313U 22041BE  23359.57673381  .00001903  00000-0  13764-3 0  9992,2 52313  53.2154 103.4129 0001513  73.8485 286.2673 15.08843187 94328,6917.871,95.437,540.782,538.689,0.0
52313.0,STARLINK-3749,PAYLOAD,2023-12-26 13:41:16,15.08840135,0.0001433,53.2168,98.9482,99.3329,260.7825,-1.4223e-05,-5.14e-06,0.0,0 STARLINK-3749,1 52313U 22041BE  23360.57033453 -.00000514  00000-0 -14223-4 0  9995,2 52313  53.2168  98.9482 0001433  99.3329 260.7825 15.08840135 94476,6917.88,95.438,540.736,538.754,0.0
52313.0,STARLINK-3749,PAYLOAD,2023-12-26 16:52:03,15.08841809,0.0001475,53.2165,98.3542,98.2984,261.8176,3.7455e-05,3.08e-06,0.0,0 STARLINK-3749,1 52313U 22041BE  23360.70281670  .00000308  00000-0  37455-4 0  9997,2 52313  53.2165  98.3542 0001475  98.2984 261.8176 15.08841809 94497,6917.875,95.437,540.76,538.719,0.0
52313.0,STARLINK-3749,PAYLOAD,2023-12-27 13:32:03,15.0884771,0.0001435,53.2164,94.4888,100.5775,259.5379,0.00020088,2.911e-05,0.0,0 STARLINK-3749,1 52313U 22041BE  23361.56393493  .00002911  00000-0  20088-3 0  9994,2 52313  53.2164  94.4888 0001435 100.5775 259.5379 15.08847710 94628,6917.857,95.437,540.715,538.729,0.0
52313.0,STARLINK-3749,PAYLOAD,2023-12-28 11:47:28,15.08839621,0.0001377,53.2161,90.329,86.3601,273.7549,0.00012043,1.629e-05,0.0,0 STARLINK-3749,1 52313U 22041BE  23362.49129962  .00001629  00000-0  12043-3 0  9992,2 52313  53.2161  90.3290 0001377  86.3601 273.7549 15.08839621 94765,6917.882,95.438,540.699,538.794,0.0
52313.0,STARLINK-3749,PAYLOAD,2023-12-28 13:22:51,15.08842735,0.0001373,53.2161,90.0313,85.2645,274.8503,0.00012232,1.659e-05,0.0,0 STARLINK-3749,1 52313U 22041BE  23362.55753792  .00001659  00000-0  12232-3 0  9996,2 52313  53.2161  90.0313 0001373  85.2645 274.8503 15.08842735 94773,6917.872,95.437,540.687,538.787,0.0
52313.0,STARLINK-3749,PAYLOAD,2023-12-29 11:38:15,15.08839938,0.000145,53.2168,85.8684,69.1963,290.9185,3.9551e-05,3.42e-06,0.0,0 STARLINK-3749,1 52313U 22041BE  23363.48490524  .00000342  00000-0  39551-4 0  9992,2 52313  53.2168  85.8684 0001450  69.1963 290.9185 15.08839938 94915,6917.881,95.438,540.749,538.742,0.0
52313.0,STARLINK-3749,PAYLOAD,2023-12-29 13:13:38,15.08839524,0.0001517,53.2172,85.571,65.684,294.4311,5.3518e-05,5.64e-06,0.0,0 STARLINK-3749,1 52313U 22041BE  23363.55114509  .00000564  00000-0  53518-4 0  9991,2 52313  53.2172  85.5710 0001517  65.6840 294.4311 15.08839524 94928,6917.882,95.438,540.796,538.697,0.0
52313.0,STARLINK-3749,PAYLOAD,2023-12-30 13:04:25,15.08846673,0.0001652,53.2179,81.1124,59.5912,300.5244,0.00015063,2.11e-05,0.0,0 STARLINK-3749,1 52313U 22041BE  23364.54473828  .00002110  00000-0  15063-3 0  9994,2 52313  53.2179  81.1124 0001652  59.5912 300.5244 15.08846673 95072,6917.86,95.437,540.868,538.582,0.0
52313.0,STARLINK-3749,PAYLOAD,2023-12-31 11:19:49,15.0883794,0.0001447,53.217,76.948,72.8791,287.2359,6.3987e-05,7.3e-06,0.0,0 STARLINK-3749,1 52313U 22041BE  23365.47210620  .00000730  00000-0  63987-4 0  9991,2 52313  53.2170  76.9480 0001447  72.8791 287.2359 15.08837940 95216,6917.887,95.438,540.753,538.751,0.0
52313.0,STARLINK-3749,PAYLOAD,2023-12-31 14:30:35,15.08841951,0.0001366,53.2173,76.3518,83.0726,277.0421,9.1732e-05,1.172e-05,0.0,0 STARLINK-3749,1 52313U 22041BE  23365.60458228  .00001172  00000-0  91732-4 0  9994,2 52313  53.2173  76.3518 0001366  83.0726 277.0421 15.08841951 95233,6917.874,95.437,540.684,538.794,0.0
52313.0,STARLINK-3749,PAYLOAD,2024-01-01 14:21:22,15.08848874,0.0001244,53.2174,71.8909,93.902,266.2115,6.228e-05,7.04e-06,0.0,0 STARLINK-3749,1 52313U 22041BE  24001.59817798  .00000704  00000-0  62280-4 0  9997,2 52313  53.2174  71.8909 0001244  93.9020 266.2115 15.08848874 95387,6917.853,95.437,540.579,538.858,0.0
52313.0,STARLINK-3749,PAYLOAD,2024-01-02 04:39:51,15.08839214,0.0001564,53.2176,69.2144,110.1476,249.9685,9.0165e-05,1.147e-05,0.0,0 STARLINK-3749,1 52313U 22041BE  24002.19434313  .00001147  00000-0  90165-4 0  9997,2 52313  53.2176  69.2144 0001564 110.1476 249.9685 15.08839214 95471,6917.883,95.438,540.83,538.666,0.0
52313.0,STARLINK-3749,PAYLOAD,2024-01-02 09:26:00,15.0884361,0.0001483,53.2172,68.323,100.459,259.6569,0.00012577,1.714e-05,0.0,0 STARLINK-3749,1 52313U 22041BE  24002.39306043  .00001714  00000-0  12577-3 0  9997,2 52313  53.2172  68.3230 0001483 100.4590 259.6569 15.08843610 95500,6917.869,95.437,540.76,538.708,0.0
52313.0,STARLINK-3749,PAYLOAD,2024-01-03 10:52:11,15.08835468,0.0001483,53.2174,63.5672,92.5285,267.5877,1.0413e-05,-1.22e-06,0.0,0 STARLINK-3749,1 52313U 22041BE  24003.45290997 -.00000122  00000-0  10413-4 0  9996,2 52313  53.2174  63.5672 0001483  92.5285 267.5877 15.08835468 95660,6917.894,95.438,540.785,538.733,0.0
52313.0,STARLINK-3749,PAYLOAD,2024-01-04 10:42:58,15.08838856,0.0001468,53.2174,59.1063,99.999,260.1168,4.3771e-05,4.09e-06,0.0,0 STARLINK-3749,1 52313U 22041BE  24004.44650763  .00000409  00000-0  43771-4 0  9997,2 52313  53.2174  59.1063 0001468  99.9990 260.1168 15.08838856 95815,6917.884,95.438,540.764,538.733,0.0
52313.0,STARLINK-3749,PAYLOAD,2024-01-04 23:26:03,15.08833392,0.0001491,53.2177,56.727,106.767,253.3486,6.6359e-05,7.68e-06,0.0,0 STARLINK-3749,1 52313U 22041BE  24004.97643139  .00000768  00000-0  66359-4 0  9999,2 52313  53.2177  56.7270 0001491 106.7670 253.3486 15.08833392 95894,6917.901,95.438,540.797,538.734,0.0
52313.0,STARLINK-3749,PAYLOAD,2024-01-05 13:44:31,15.08839667,0.0001418,53.2171,54.0496,94.6853,265.4301,0.00010881,1.444e-05,0.0,0 STARLINK-3749,1 52313U 22041BE  24005.57258926  .00001444  00000-0  10881-3 0  9992,2 52313  53.2171  54.0496 0001418  94.6853 265.4301 15.08839667 95987,6917.881,95.438,540.727,538.765,0.0
52313.0,STARLINK-3749,PAYLOAD,2024-01-06 11:59:55,15.08842772,0.0001472,53.217,49.885,102.9925,257.1231,7.0688e-05,8.37e-06,0.0,0 STARLINK-3749,1 52313U 22041BE  24006.49994958  .00000837  00000-0  70688-4 0  9993,2 52313  53.2170  49.8850 0001472 102.9925 257.1231 15.08842772 96123,6917.872,95.437,540.755,538.719,0.0
52313.0,STARLINK-3749,PAYLOAD,2024-01-07 02:18:24,15.08834102,0.0001385,53.2171,47.2091,96.3588,263.7562,0.00012648,1.725e-05,0.0,0 STARLINK-3749,1 52313U 22041BE  24007.09611338  .00001725  00000-0  12648-3 0  9996,2 52313  53.2171  47.2091 0001385  96.3588 263.7562 15.08834102 96215,6917.898,95.438,540.722,538.805,0.0
52313.0,STARLINK-3749,PAYLOAD,2024-01-07 10:15:19,15.08845724,0.0001386,53.217,45.7227,93.1822,266.9329,0.00012391,1.685e-05,0.0,0 STARLINK-3749,1 52313U 22041BE  24007.42730650  .00001685  00000-0  12391-3 0  9992,2 52313  53.2170  45.7227 0001386  93.1822 266.9329 15.08845724 96268,6917.863,95.437,540.687,538.769,0.0
52313.0,STARLINK-3749,PAYLOAD,2024-01-07 22:58:24,15.08839154,0.0001458,53.2167,43.3428,103.5687,256.5467,4.5033e-05,4.29e-06,0.0,0 STARLINK-3749,1 52313U 22041BE  24007.95723252  .00000429  00000-0  45033-4 0  9995,2 52313  53.2167  43.3428 0001458 103.5687 256.5467 15.08839154 96343,6917.883,95.438,540.757,538.739,0.0
52313.0,STARLINK-3749,PAYLOAD,2024-01-08 11:41:29,15.08840127,0.0001534,53.2172,40.9631,117.2191,242.8958,3.7037e-05,3.02e-06,0.0,0 STARLINK-3749,1 52313U 22041BE  24008.48715178  .00000302  00000-0  37037-4 0  9997,2 52313  53.2172  40.9631 0001534 117.2191 242.8958 15.08840127 96429,6917.88,95.438,540.806,538.684,0.0
52313.0,STARLINK-3749,PAYLOAD,2024-01-09 05:10:44,15.0884059,0.0001474,53.2171,37.6908,114.3365,245.7781,0.00011203,1.495e-05,0.0,0 STARLINK-3749,1 52313U 22041BE  24009.21578944  .00001495  00000-0  11203-3 0  9997,2 52313  53.2171  37.6908 0001474 114.3365 245.7781 15.08840590 96534,6917.879,95.438,540.763,538.724,0.0
52313.0,STARLINK-3749,PAYLOAD,2024-01-09 11:32:16,15.08851465,0.0001432,53.2171,36.5026,102.9736,257.1416,6.5375e-05,7.53e-06,0.0,0 STARLINK-3749,1 52313U 22041BE  24009.48074380  .00000753  00000-0  65375-4 0  9997,2 52313  53.2171  36.5026 0001432 102.9736 257.1416 15.08851465 96571,6917.845,95.437,540.701,538.72,0.0
52313.0,STARLINK-3749,PAYLOAD,2024-01-10 01:50:46,15.08827888,0.0001235,53.2187,33.8354,62.4797,297.632,7.8436e-06,-1.63e-06,0.0,0 STARLINK-3749,1 52313U 22041BE  24010.07692321 -.00000163  00000-0  78436-5 0  9994,2 52313  53.2187  33.8354 0001235  62.4797 297.6320 15.08827888 96665,6917.917,95.438,540.637,538.928,0.0
52313.0,STARLINK-3749,PAYLOAD,2024-01-10 08:12:18,15.08828186,0.0001376,53.2178,32.6444,89.0634,271.0516,-1.1837e-06,-3.07e-06,0.0,0 STARLINK-3749,1 52313U 22041BE  24010.34188414 -.00000307  00000-0 -11837-5 0  9990,2 52313  53.2178  32.6444 0001376  89.0634 271.0516 15.08828186 96703,6917.916,95.438,540.733,538.83,0.0
52313.0,STARLINK-3749,PAYLOAD,2024-01-11 01:41:32,15.08849271,0.0001222,53.218,29.3699,87.4117,272.7015,0.00012541,1.709e-05,0.0,0 STARLINK-3749,1 52313U 22041BE  24011.07050988  .00001709  00000-0  12541-3 0  9991,2 52313  53.2180  29.3699 0001222  87.4117 272.7015 15.08849271 96811,6917.852,95.437,540.562,538.872,0.0
52313.0,STARLINK-3749,PAYLOAD,2024-01-11 08:03:04,15.08859824,0.0001397,53.2163,28.1793,93.9667,266.1485,0.00036251,5.489e-05,0.0,0 STARLINK-3749,1 52313U 22041BE  24011.33546628  .00005489  00000-0  36251-3 0  9994,2 52313  53.2163  28.1793 0001397  93.9667 266.1485 15.08859824 96856,6917.82,95.436,540.651,538.718,0.0
